HIMAWARI-8              
1 40267U 14060A   24012.04841260 -.00000263  00000+0  00000+0 0  9994
2 40267   0.0350 222.0769 0000696  94.1884 312.8531  1.00270967 33968
